IXPE                    
1 49954U 21121A   24149.58334491  .00003699  00000+0  23763-3 0  9995
2 49954   0.2289 178.7036 0009045 347.5342 232.4739 14.98012648  5741
